[{"OBJECT_NAME":"TWILIGHT-1 OBJECT Z","OBJECT_ID":"2026-004Z","EPOCH":"2026-03-09T21:26:05.365824","MEAN_MOTION":14.88483265,"ECCENTRICITY":0.00044133,"INCLINATION":97.8002,"RA_OF_ASC_NODE":69.141,"ARG_OF_PERICENTER":91.4966,"MEAN_ANOMALY":268.6757,"EPHEMERIS_TYPE":0,"CLASSIFICATION_TYPE":"U","NORAD_CAT_ID":67386,"ELEMENT_SET_NO":999,"REV_AT_EPOCH":852,"BSTAR":0.00035192428,"MEAN_MOTION_DOT":3.215e-5,"MEAN_MOTION_DDOT":0},{"OBJECT_NAME":"CZ-6A DEB","OBJECT_ID":"2024-140VK","EPOCH":"2026-03-09T08:08:08.530368","MEAN_MOTION":14.8387023,"ECCENTRICITY":0.00525207,"INCLINATION":88.9538,"RA_OF_ASC_NODE":278.1278,"ARG_OF_PERICENTER":205.341,"MEAN_ANOMALY":154.5239,"EPHEMERIS_TYPE":0,"CLASSIFICATION_TYPE":"U","NORAD_CAT_ID":61346,"ELEMENT_SET_NO":999,"REV_AT_EPOCH":8017,"BSTAR":0.0048154655,"MEAN_MOTION_DOT":0.00041143,"MEAN_MOTION_DDOT":0}]
